[{"OBJECT_NAME":"LEMUR-2-LUCILLE-ROSE","OBJECT_ID":"2025-135BV","EPOCH":"2026-03-09T20:33:39.744864","MEAN_MOTION":14.98437227,"ECCENTRICITY":0.00099823,"INCLINATION":97.7607,"RA_OF_ASC_NODE":185.354,"ARG_OF_PERICENTER":240.475,"MEAN_ANOMALY":119.5478,"EPHEMERIS_TYPE":0,"CLASSIFICATION_TYPE":"U","NORAD_CAT_ID":65403,"ELEMENT_SET_NO":999,"REV_AT_EPOCH":3375,"BSTAR":0.0012144011,"MEAN_MOTION_DOT":0.00014478,"MEAN_MOTION_DDOT":0},{"OBJECT_NAME":"STARLINK-36230","OBJECT_ID":"2025-298A","EPOCH":"2026-03-09T22:51:12.218400","MEAN_MOTION":14.99139706,"ECCENTRICITY":0.00028238,"INCLINATION":70.002,"RA_OF_ASC_NODE":13.9185,"ARG_OF_PERICENTER":257.4246,"MEAN_ANOMALY":102.6598,"EPHEMERIS_TYPE":0,"CLASSIFICATION_TYPE":"U","NORAD_CAT_ID":67075,"ELEMENT_SET_NO":999,"REV_AT_EPOCH":1325,"BSTAR":0.00033799472,"MEAN_MOTION_DOT":4.027e-5,"MEAN_MOTION_DDOT":0}]
